ONEWEB-0716             
1 55177U 23004AP  25365.15027620  .00000060  00000+0  12202-3 0  9993
2 55177  87.9092  39.2780 0001824  88.6830 271.4510 13.17650641145452
ONEWEB-0717             
1 55178U 23004AQ  25365.13339850 -.00000198  00000+0 -54267-3 0  9994
2 55178  87.9102  39.2540 0002049 116.7899 243.3442 13.17649038145503
ONEWEB-0719             
1 55179U 23004AR  25365.14353589  .00000940  00000+0  23882-2 0  9992
2 55179  87.9103  39.2343 0001974  93.4847 266.6510 13.17657393145457
ONEWEB-0530             
1 55796U 23029A   25365.13764986 -.00000067  00000+0 -19788-3 0  9993
2 55796  87.9216 308.0009 0002019  90.0444 270.0921 13.20771172138969
ONEWEB-0534             
1 55797U 23029B   25365.12503646 -.00000071  00000+0 -20657-3 0  9999
2 55797  87.9212 308.0036 0001823  74.9767 285.1568 13.20770017138968
ONEWEB-0556             
1 55798U 23029C   25365.13132299 -.00000025  00000+0 -92944-4 0  9991
2 55798  87.9217 308.0029 0002697  72.8747 287.2681 13.20773296138962
ONEWEB-0562             
1 55799U 23029D   25365.11871722 -.00000051  00000+0 -15749-3 0  9997
2 55799  87.9213 307.9871 0002524  90.7789 269.3634 13.20772267138962
ONEWEB-0563             
1 55800U 23029E   25365.11241058  .00000024  00000+0  27994-4 0  9997
2 55800  87.9218 308.0167 0001916  70.8050 289.3290 13.20770699138950
